[
    {
        "Altitude(m)": 607897.6418871398,
        "Argument of Periapsis(deg)": 0.0,
        "Eccentricity": 0.0,
        "Inclination(deg)": 60.0,
        "Latitude(deg)": -14.293088172403776,
        "Longitude(deg)": -103.38125153360664,
        "Mean Anomaly(deg)": 343.6364,
        "RAAN(deg)": 5.0,
        "Satellite Name": "Test1 43",
        "Satellite Number": 43,
        "Semi-Major Axis(m)": 6980739.136638005,
        "Time(s)": 0
    },
    {
        "Altitude(m)": 607750.8422576385,
        "Argument of Periapsis(deg)": 0.00010418945913296404,
        "Eccentricity": 0.0,
        "Inclination(deg)": 60.0,
        "Latitude(deg)": -13.75892971114571,
        "Longitude(deg)": -103.09418216218582,
        "Mean Anomaly(deg)": 344.2565061454618,
        "RAAN(deg)": 4.999579950860257,
        "Satellite Name": "Test1 43",
        "Satellite Number": 43,
        "Semi-Major Axis(m)": 6980739.136638005,
        "Time(s)": 10
    }
]